GLOBALSTAR M063         
1 26081U 00008A   25178.46629985 -.00000098  00000+0 -21852-3 0  9996
2 26081  51.9959  84.5001 0004834 344.1088 194.0731 11.86174804158797
GLOBALSTAR M062         
1 26082U 00008B   25178.64291285 -.00000008  00000+0  64269-3 0  9994
2 26082  51.9857  65.0346 0007248 128.0956 250.1899 12.43468702497923
GLOBALSTAR M060         
1 26083U 00008C   25178.34926964  .00000008  00000+0  98348-3 0  9995
2 26083  52.0037  27.3442 0003557 132.1558  39.5220 12.17665952153605
GLOBALSTAR M064         
1 26084U 00008D   25178.31955599 -.00000090  00000+0 -94934-4 0  9990
2 26084  52.0002 183.5953 0001201  72.8488 287.2476 11.88534589168302
GLOBALSTAR M065         
1 31571U 07020A   25178.35270515 -.00000087  00000+0  91532-4 0  9996
2 31571  51.9864 195.3274 0010035 331.4398  41.5858 12.62009733834697
GLOBALSTAR M071         
1 31576U 07020F   25178.37350355 -.00000020  00000+0  70536-3 0  9991
2 31576  52.0028 202.2852 0000773 142.9504 230.7694 12.18255584496184
